{
  "norad_id": 60590,
  "name": "STARLINK-32209",
  "history": [
    {
      "epoch": "2026-03-28T15:17:05.397792",
      "apogee_km": 476.1144561920937,
      "perigee_km": 474.35999239067587,
      "latitude_deg": -9.226140993879277,
      "longitude_deg": -59.86066911998205,
      "semi_major_axis_km": 6853.374224291385,
      "eccentricity": 0.000128,
      "inclination_deg": 53.1613,
      "raan_deg": 218.9178,
      "arg_perigee_deg": 80.9381,
      "mean_anomaly_deg": 279.1765,
      "mean_motion_rev_day": 15.3019258
    }
  ]
}